     2.100          NAVIGATION                              RINEX VERSION / TYPE
fic2rin                                 06/17/2016 00:37:59 PGM / RUN BY / DATE
                                                            END OF HEADER
24 16  6 16  1 59 44.0 -.186492688954D-04 -.568434188608D-12  .000000000000D+00
     .320000000000D+02  .733750000000D+02  .474841207614D-08 -.228618087670D+01
     .386871397495D-05  .442625314463D-02  .375509262085D-05  .515361464500D+04
     .352784000000D+06 -.800937414169D-07  .575215550071D+00  .186264514923D-08
     .949473766719D+00  .302156250000D+03  .414662444287D+00 -.831998941810D-08
     .202151277555D-09  .100000000000D+01  .190100000000D+04  .000000000000D+00
     .240000000000D+01  .000000000000D+00  .232830643654D-08  .320000000000D+02
     .345756000000D+06  .400000000000D+01
15 16  6 16  1 59 44.0 -.315454788506D-03 -.159161572810D-11  .000000000000D+00
     .100000000000D+01  .578750000000D+02  .491663336894D-08 -.120928691163D+01
     .295042991638D-05  .816224655136D-02  .106245279312D-04  .515361392403D+04
     .352784000000D+06  .204890966415D-06 -.508049977681D+00 -.115483999252D-06
     .930837485072D+00  .159750000000D+03  .482456931011D+00 -.812033824468D-08
    -.223937899341D-09  .100000000000D+01  .190100000000D+04  .000000000000D+00
     .240000000000D+01  .000000000000D+00 -.107102096081D-07  .100000000000D+01
     .352446000000D+06  .400000000000D+01
15 16  6 16  3 59 44.0 -.315466430038D-03 -.159161572810D-11  .000000000000D+00
     .600000000000D+01  .591875000000D+02  .509306928964D-08 -.159032883741D+00
     .298209488392D-05  .816296972334D-02  .100918114185D-04  .515361530304D+04
     .359984000000D+06  .540167093277D-07 -.508108988870D+00  .968575477600D-07
     .930834548995D+00  .166187500000D+03  .482423491629D+00 -.837070581635D-08
    -.285369029623D-09  .100000000000D+01  .190100000000D+04  .000000000000D+00
     .240000000000D+01  .000000000000D+00 -.107102096081D-07  .600000000000D+01
     .352806000000D+06  .400000000000D+01
 1 16  6 16  4  0  0.0  .237855128944D-04  .125055521494D-11  .000000000000D+00
     .450000000000D+02  .721875000000D+01  .478519932276D-08 -.145957328093D+01
     .270083546638D-06  .557132216636D-02  .594183802605D-05  .515363800812D+04
     .360000000000D+06  .763684511185D-07 -.253610376791D+01 -.279396772385D-07
     .964629339084D+00  .264656250000D+03  .473044277633D+00 -.810390898891D-08
     .454661795632D-09  .100000000000D+01  .190100000000D+04  .000000000000D+00
     .240000000000D+01  .000000000000D+00  .512227416039D-08  .450000000000D+02
     .352806000000D+06  .400000000000D+01
 2 16  6 16  4  0  0.0  .585115049034D-03 -.261479726760D-11  .000000000000D+00
     .360000000000D+02  .117812500000D+02  .534200823037D-08 -.109426159977D+01
     .101327896118D-05  .157710599015D-01  .600516796112D-05  .515357386971D+04
     .360000000000D+06  .175088644028D-06 -.258204573588D+01  .327825546265D-06
     .943436970897D+00  .254031250000D+03 -.210901878066D+01 -.844606609827D-08
     .409659921123D-09  .100000000000D+01  .190100000000D+04  .000000000000D+00
     .240000000000D+01  .000000000000D+00 -.200234353542D-07  .360000000000D+02
     .352806000000D+06  .400000000000D+01
 3 16  6 16  4  0  0.0 -.676689669490D-04 -.341060513165D-11  .000000000000D+00
     .220000000000D+02 -.312187500000D+02  .484841624171D-08 -.464321201413D+00
    -.161677598953D-05  .226475647651D-03  .742822885513D-05  .515368027306D+04
     .360000000000D+06 -.279396772385D-07 -.149444627382D+01 -.726431608200D-07
     .958858065819D+00  .233218750000D+03 -.165999518779D+01 -.813176729218D-08
    -.356443418728D-09  .100000000000D+01  .190100000000D+04  .000000000000D+00
     .240000000000D+01  .000000000000D+00  .186264514923D-08  .220000000000D+02
     .352806000000D+06  .400000000000D+01
 4 16  6 16  4  0  0.0 -.257834326476D-03 -.568434188608D-12  .000000000000D+00
     .520000000000D+02 -.773750000000D+02  .523307512144D-08  .172368163378D+01
    -.405870378017D-05  .851488031913D-02  .510364770889D-05  .515365315247D+04
     .360000000000D+06 -.968575477600D-07  .167011907829D+01 -.763684511185D-07
     .983051661648D+00  .294375000000D+03  .897101766152D+00 -.803569186168D-08
    -.255010622216D-09  .100000000000D+01  .190100000000D+04  .000000000000D+00
     .240000000000D+01  .630000000000D+02 -.195577740669D-07  .520000000000D+02
     .352806000000D+06  .400000000000D+01
 5 16  6 16  4  0  0.0 -.112516339868D-03  .295585778076D-11  .000000000000D+00
     .450000000000D+02 -.277812500000D+02  .525414742776D-08  .140055883206D+01
    -.120140612125D-05  .464333419222D-02  .751204788685D-05  .515380940437D+04
     .360000000000D+06  .633299350739D-07 -.150661203516D+01  .152736902237D-06
     .945921659720D+00  .227843750000D+03  .453046035346D+00 -.836213403073D-08
    -.418231706744D-09  .100000000000D+01  .190100000000D+04  .000000000000D+00
     .240000000000D+01  .000000000000D+00 -.107102096081D-07  .450000000000D+02
     .352806000000D+06  .400000000000D+01
 6 16  6 16  4  0  0.0  .205399934202D-03  .534328137292D-11  .000000000000D+00
     .180000000000D+02  .584375000000D+01  .482841540860D-08 -.120710641322D+01
     .325962901115D-06  .397759024054D-03  .634230673313D-05  .515370538330D+04
     .360000000000D+06 -.242143869400D-07 -.254453009266D+01 -.149011611938D-07
     .964461665265D+00  .262843750000D+03 -.135089796102D+01 -.810640909305D-08
     .367872466222D-09  .100000000000D+01  .190100000000D+04  .000000000000D+00
     .240000000000D+01  .000000000000D+00  .419095158577D-08  .180000000000D+02
     .352806000000D+06  .400000000000D+01
 7 16  6 16  4  0  0.0  .448169652373D-03 -.238742359215D-11  .000000000000D+00
     .450000000000D+02  .620625000000D+02  .437268213976D-08 -.218176380557D+01
     .314041972160D-05  .958037341479D-02  .387802720070D-05  .515364428520D+04
     .360000000000D+06  .130385160446D-07  .622658501254D+00 -.949949026108D-07
     .966370608049D+00  .308593750000D+03 -.267156303172D+01 -.805533553706D-08
     .157863718515D-09  .100000000000D+01  .190100000000D+04  .000000000000D+00
     .240000000000D+01  .000000000000D+00 -.111758708954D-07  .450000000000D+02
     .352806000000D+06  .400000000000D+01
 8 16  6 16  4  0  0.0 -.391942448914D-04 -.147792889038D-11  .000000000000D+00
     .150000000000D+02 -.426875000000D+02  .418553148704D-08  .150634873185D+01
    -.211223959923D-05  .172347389162D-02  .970996916294D-05  .515370935822D+04
     .360000000000D+06  .502914190292D-07  .268693676321D+01 -.838190317154D-07
     .963731303414D+00  .194187500000D+03 -.107404952421D+01 -.783104047998D-08
     .300726812193D-09  .100000000000D+01  .190100000000D+04  .000000000000D+00
     .240000000000D+01  .000000000000D+00  .465661287308D-08  .150000000000D+02
     .352806000000D+06  .400000000000D+01
 9 16  6 16  4  0  0.0  .149478670210D-03  .727595761418D-11  .000000000000D+00
     .280000000000D+02  .537500000000D+02  .442375569575D-08  .274134745715D+00
     .268034636974D-05  .535046099685D-03  .999495387077D-05  .515356778145D+04
     .360000000000D+06 -.260770320892D-07 -.455099670968D+00 -.558793544769D-08
     .955158486436D+00  .184187500000D+03  .233060928623D+01 -.790997233924D-08
    -.214294640518D-09  .100000000000D+01  .190100000000D+04  .000000000000D+00
     .240000000000D+01  .000000000000D+00  .139698386192D-08  .280000000000D+02
     .352806000000D+06  .400000000000D+01
10 16  6 16  4  0  0.0 -.463640317321D-04 -.818545231596D-11  .000000000000D+00
     .210000000000D+02 -.313437500000D+02  .487806033365D-08  .247242172238D+01
    -.158511102200D-05  .155707367230D-02  .752694904804D-05  .515367876434D+04
     .360000000000D+06 -.409781932831D-07 -.149844032252D+01 -.391155481339D-07
     .959093810678D+00  .235375000000D+03 -.270949191420D+01 -.809176562595D-08
    -.380372986919D-09  .100000000000D+01  .190100000000D+04  .000000000000D+00
     .240000000000D+01  .000000000000D+00  .232830643654D-08  .210000000000D+02
     .352806000000D+06  .400000000000D+01
11 16  6 16  4  0  0.0 -.651387963444D-03 -.261479726760D-11  .000000000000D+00
     .360000000000D+02  .204062500000D+02  .597989194365D-08 -.206508055695D+01
     .126473605633D-05  .164603744633D-01  .669620931149D-05  .515366598701D+04
     .360000000000D+06  .221654772758D-06 -.291437269736D+01  .154599547386D-06
     .897174464403D+00  .208843750000D+03  .153209647625D+01 -.850249702027D-08
     .575738267524D-09  .100000000000D+01  .190100000000D+04  .000000000000D+00
     .240000000000D+01  .000000000000D+00 -.121071934700D-07  .360000000000D+02
     .352806000000D+06  .400000000000D+01
12 16  6 16  4  0  0.0  .382859259844D-03  .102318153949D-11  .000000000000D+00
     .890000000000D+02 -.773750000000D+02  .370515433455D-08 -.276004821399D+01
    -.395067036152D-05  .614415539894D-02  .574067234993D-05  .515371712685D+04
     .360000000000D+06  .149011611938D-07  .169956390196D+01 -.111758708954D-07
     .990070040391D+00  .283531250000D+03  .766120422894D+00 -.775139430526D-08
    -.181793286706D-09  .100000000000D+01  .190100000000D+04  .000000000000D+00
     .340000000000D+01  .000000000000D+00 -.125728547573D-07  .890000000000D+02
     .352806000000D+06  .400000000000D+01
13 16  6 16  4  0  0.0 -.250129960477D-04 -.250111042988D-11  .000000000000D+00
     .580000000000D+02  .797500000000D+02  .413445793105D-08 -.125580970343D+01
     .411458313465D-05  .426976103336D-02  .991299748421D-05  .515368938065D+04
     .360000000000D+06 -.745058059692D-07 -.334140587828D+00 -.186264514923D-08
     .971613984400D+00  .190625000000D+03  .200183917453D+01 -.787925677410D-08
    -.135719938995D-09  .100000000000D+01  .190100000000D+04  .000000000000D+00
     .240000000000D+01  .000000000000D+00 -.111758708954D-07  .580000000000D+02
     .352806000000D+06  .400000000000D+01
